STARLINK-2469           
1 48128U 21027AN  26068.38685403  .00022048  00000+0  10578-2 0  9992
2 48128  53.1065 102.3811 0001315  92.2024 267.9122 15.18828320273357
TRANSPORTER-15 OBJECT CJ
1 66746U 25276CJ  26068.72219311  .00017213  00000+0  77607-3 0  9992
2 66746  97.3697 143.6602 0010806 305.0415  54.9807 15.21041958 15338
